ONEWEB-0597             
1 54663U 22166X   26178.20388475  .00000078  00000+0  15851-3 0  9999
2 54663  87.9247 241.9943 0001998  94.6927 265.4435 13.21827834172861
ONEWEB-0600             
1 54664U 22166Y   26178.26108519 -.00000038  00000+0 -12285-3 0  9991
2 54664  87.9248 241.9743 0001817  98.4285 261.7055 13.21824885172848
ONEWEB-0601             
1 54665U 22166Z   26178.17695531  .00000657  00000+0  15601-2 0  9996
2 54665  87.9246 242.0073 0001990  90.8541 269.2821 13.21822465173025
ONEWEB-0602             
1 54666U 22166AA  26178.21817898  .00000041  00000+0  67145-4 0  9993
2 54666  87.9245 242.0049 0001782  98.9513 261.1822 13.21827437172873
ONEWEB-0603             
1 54667U 22166AB  26178.22407396  .00000105  00000+0  22315-3 0  9993
2 54667  87.9255 241.9617 0001976  95.9284 264.2075 13.21827076172807
ONEWEB-0604             
1 54668U 22166AC  26178.21227658  .00000020  00000+0  16483-4 0  9990
2 54668  87.9256 241.9798 0002072 100.3084 259.8284 13.21828337172764
ONEWEB-0605             
1 54669U 22166AD  26178.20557088  .00000075  00000+0  14926-3 0  9992
2 54669  87.9248 241.9936 0002370  83.5620 276.5784 13.21827583172830
ONEWEB-0606             
1 54670U 22166AE  26178.22741360  .00001464  00000+0  35126-2 0  9991
2 54670  87.9211 241.9987 0002028 105.9043 254.2315 13.21837947172890
ONEWEB-0607             
1 54671U 22166AF  26178.19379904  .00000124  00000+0  26865-3 0  9992
2 54671  87.9254 241.9799 0001932  95.2540 264.8814 13.21825185172864
ONEWEB-0608             
1 54672U 22166AG  26178.20049679  .00000097  00000+0  20292-3 0  9995
2 54672  87.9259 241.9758 0002073  83.2364 276.9006 13.21828730172870
ONEWEB-0610             
1 54673U 22166AH  26178.18034097  .00000056  00000+0  10385-3 0  9998
2 54673  87.9247 241.9931 0001801  81.1140 279.0197 13.21825541172779
ONEWEB-0611             
1 54674U 22166AJ  26178.17359299  .00000100  00000+0  21012-3 0  9991
2 54674  87.9249 241.9903 0002145 101.3527 258.7848 13.21825956172763
ONEWEB-0612             
1 54675U 22166AK  26178.18707279  .00000064  00000+0  12293-3 0  9998
2 54675  87.9260 241.9842 0002030  93.5685 266.5681 13.21826177172756
ONEWEB-0615             
1 54676U 22166AL  26178.16687970  .00000068  00000+0  13303-3 0  9999
2 54676  87.9251 242.0021 0002033 105.5612 254.5747 13.21827600172768
ONEWEB-0655             
1 54677U 22166AM  26178.21902408  .00000058  00000+0  10943-3 0  9998
2 54677  87.9248 241.9926 0001796  97.4992 262.6346 13.21827553172764
ONEWEB-0659             
1 54678U 22166AN  26178.16017028 -.00000071  00000+0 -20440-3 0  9998
2 54678  87.9247 242.0041 0002235  98.0636 262.0752 13.21852683172841
ONEWEB-0685             
1 54679U 22166AP  26178.23577334 -.00000080  00000+0 -22552-3 0  9994
2 54679  87.9244 241.9809 0001907  87.8613 272.2739 13.21847332172747
ONEWEB-0712             
1 54680U 22166AQ  26178.16761441  .00000025  00000+0  32252-4 0  9998
2 54680  87.9091 226.7929 0001611  99.1963 260.9350 13.16594924173372
ONEWEB-0714             
1 54681U 22166AR  26178.24089642  .00000033  00000+0  49213-4 0  9998
2 54681  87.9248 241.9777 0001797 103.0036 257.1299 13.21825066172861
ONEWEB-0532             
1 55140U 23004A   26178.20794060 -.00000028  00000+0 -10530-3 0  9999
2 55140  87.9131   3.8706 0002200  85.7176 274.4207 13.17647754168903
ONEWEB-0533             
1 55141U 23004B   26178.21575538  .00000132  00000+0  33167-3 0  9993
2 55141  87.8947 348.6757 0001733  86.8912 273.2415 13.12445262169379
ONEWEB-0541             
1 55142U 23004C   26178.25347324  .00000216  00000+0  57445-3 0  9996
2 55142  87.8890  19.0546 0001990  90.8959 269.2397 13.11414268167264
ONEWEB-0543             
1 55143U 23004D   26178.17957444 -.00000055  00000+0 -17277-3 0  9990
2 55143  87.9167 333.4809 0001643  98.6719 261.4599 13.18685408171012
ONEWEB-0544             
1 55144U 23004E   26178.17282842 -.00000004  00000+0 -41998-4 0  9996
2 55144  87.9168 333.4818 0001840 101.6260 258.5079 13.18685905171011
ONEWEB-0560             
1 55145U 23004F   26178.16607371 -.00000006  00000+0 -46700-4 0  9992
2 55145  87.9168 333.4726 0001788 103.9211 256.2120 13.18687316171023
ONEWEB-0565             
1 55146U 23004G   26178.15934429  .00000073  00000+0  15300-3 0  9992
2 55146  87.9158 333.5010 0002207 101.5006 258.6374 13.18685740171018
ONEWEB-0567             
1 55147U 23004H   26178.15259942  .00000013  00000+0 -31632-6 0  9997
2 55147  87.9166 333.4874 0002075 103.5188 256.6175 13.18686067171011
ONEWEB-0569             
1 55148U 23004J   26178.13974732  .00000153  00000+0  38324-3 0  9993
2 55148  87.8971 318.2386 0002091 123.8118 236.3211 13.13469829171487
ONEWEB-0570             
1 55149U 23004K   26178.14416155  .00000027  00000+0  36086-4 0  9999
2 55149  87.9166 333.4867 0002247  91.1034 269.0355 13.18686326171003
ONEWEB-0571             
1 55150U 23004L   26177.98566417 -.00000048  00000+0 -15378-3 0  9994
2 55150  87.9167 333.5178 0002725 118.5388 241.6019 13.18684884170996
